{
  "type": "FeatureCollection",
  "features": [
    {
      "type": "Feature",
      "properties": {
        "norad_id": 54259,
        "name": "EUTELSAT 10B",
        "group": "eutelsat",
        "lat": -0.03381873168177362,
        "lon": 41.07871537948426,
        "alt_km": 35788.47812558264,
        "timestamp": "2025-12-11T20:41:14.758698+00:00",
        "meta_object_name": "EUTELSAT 10B",
        "meta_object_id": "2022-157A",
        "meta_epoch": "2025-12-10T23:51:46.763136",
        "meta_mean_motion": 1.00269612,
        "meta_eccentricity": 7.44e-05,
        "meta_inclination": 0.0623,
        "meta_ra_of_asc_node": 98.8019,
        "meta_arg_of_pericenter": 68.7015,
        "meta_mean_anomaly": 280.371,
        "meta_ephemeris_type": 0,
        "meta_classification_type": "U",
        "meta_norad_cat_id": 54259,
        "meta_element_set_no": 999,
        "meta_rev_at_epoch": 1114,
        "meta_bstar": 0,
        "meta_mean_motion_dot": 7.3e-07,
        "meta_mean_motion_ddot": 0,
        "tle_line1": "1 54259U 22157A   25344.99429124  .00000073  00000+0  00000+0 0  9998",
        "tle_line2": "2 54259   0.0623  98.8019 0000744  68.7015 280.3710  1.00269612 11140"
      },
      "geometry": {
        "type": "Point",
        "coordinates": [
          41.07871537948426,
          -0.03381873168177362
        ]
      }
    },
    {
      "type": "Feature",
      "properties": {
        "norad_id": 59346,
        "name": "EUTELSAT 36D",
        "group": "eutelsat",
        "lat": 0.036398343842701054,
        "lon": 66.97000513555743,
        "alt_km": 35786.63890417841,
        "timestamp": "2025-12-11T20:41:14.758709+00:00",
        "meta_object_name": "EUTELSAT 36D",
        "meta_object_id": "2024-059A",
        "meta_epoch": "2025-12-11T13:40:51.589056",
        "meta_mean_motion": 1.00269032,
        "meta_eccentricity": 3.942e-05,
        "meta_inclination": 0.0184,
        "meta_ra_of_asc_node": 346.0247,
        "meta_arg_of_pericenter": 356.9839,
        "meta_mean_anomaly": 338.5802,
        "meta_ephemeris_type": 0,
        "meta_classification_type": "U",
        "meta_norad_cat_id": 59346,
        "meta_element_set_no": 999,
        "meta_rev_at_epoch": 626,
        "meta_bstar": 0,
        "meta_mean_motion_dot": 0,
        "meta_mean_motion_ddot": 0,
        "tle_line1": "1 59346U 24059A   25345.57004154  .00000000  00000+0  00000+0 0  9990",
        "tle_line2": "2 59346   0.0184 346.0247 0000394 356.9839 338.5802  1.00269032  6263"
      },
      "geometry": {
        "type": "Point",
        "coordinates": [
          66.97000513555743,
          0.036398343842701054
        ]
      }
    }
  ]
}